[
    {
        "CCSDS_OMM_VERS": "3.0",
        "COMMENT": "GENERATED VIA SPACE-TRACK.ORG API",
        "CREATION_DATE": "2024-10-22T04:17:00",
        "ORIGINATOR": "18 SPCS",
        "OBJECT_NAME": "SL-16 R/B",
        "OBJECT_ID": "2007-029B",
        "CENTER_NAME": "EARTH",
        "REF_FRAME": "TEME",
        "TIME_SYSTEM": "UTC",
        "MEAN_ELEMENT_THEORY": "SGP4",
        "EPOCH": "2024-10-21T19:09:54.986112",
        "MEAN_MOTION": "14.14687216",
        "ECCENTRICITY": "0.00018780",
        "INCLINATION": "70.9739",
        "RA_OF_ASC_NODE": "151.5071",
        "ARG_OF_PERICENTER": "278.3306",
        "MEAN_ANOMALY": "127.7973",
        "EPHEMERIS_TYPE": "0",
        "CLASSIFICATION_TYPE": "U",
        "NORAD_CAT_ID": "31793",
        "ELEMENT_SET_NO": "999",
        "REV_AT_EPOCH": "89410",
        "BSTAR": "0.00023337000000",
        "MEAN_MOTION_DOT": "0.00000401",
        "MEAN_MOTION_DDOT": "0.0000000000000",
        "SEMIMAJOR_AXIS": "7221.513",
        "PERIOD": "101.789",
        "APOAPSIS": "844.735",
        "PERIAPSIS": "842.022",
        "OBJECT_TYPE": "ROCKET BODY",
        "RCS_SIZE": "LARGE",
        "COUNTRY_CODE": "CIS",
        "LAUNCH_DATE": "2007-06-29",
        "SITE": "TTMTR",
        "DECAY_DATE": null,
        "FILE": "4530606",
        "GP_ID": "271216473",
        "TLE_LINE0": "0 SL-16 R/B",
        "TLE_LINE1": "1 31793U 07029B   24295.79855308  .00000401  00000-0  23337-3 0  9994",
        "TLE_LINE2": "2 31793  70.9739 151.5071 0001878 278.3306 127.7973 14.14687216894101"
    },
    {
        "CCSDS_OMM_VERS": "3.0",
        "COMMENT": "GENERATED VIA SPACE-TRACK.ORG API",
        "CREATION_DATE": "2024-10-22T04:17:00",
        "ORIGINATOR": "18 SPCS",
        "OBJECT_NAME": "CZ-2D R/B",
        "OBJECT_ID": "2011-068C",
        "CENTER_NAME": "EARTH",
        "REF_FRAME": "TEME",
        "TIME_SYSTEM": "UTC",
        "MEAN_ELEMENT_THEORY": "SGP4",
        "EPOCH": "2024-10-21T22:02:54.337344",
        "MEAN_MOTION": "14.22657293",
        "ECCENTRICITY": "0.00363280",
        "INCLINATION": "98.8093",
        "RA_OF_ASC_NODE": "237.5493",
        "ARG_OF_PERICENTER": "196.3563",
        "MEAN_ANOMALY": "207.8479",
        "EPHEMERIS_TYPE": "0",
        "CLASSIFICATION_TYPE": "U",
        "NORAD_CAT_ID": "37932",
        "ELEMENT_SET_NO": "999",
        "REV_AT_EPOCH": "67069",
        "BSTAR": "0.00020426000000",
        "MEAN_MOTION_DOT": "0.00000415",
        "MEAN_MOTION_DDOT": "0.0000000000000",
        "SEMIMAJOR_AXIS": "7194.517",
        "PERIOD": "101.219",
        "APOAPSIS": "842.518",
        "PERIAPSIS": "790.246",
        "OBJECT_TYPE": "ROCKET BODY",
        "RCS_SIZE": "LARGE",
        "COUNTRY_CODE": "PRC",
        "LAUNCH_DATE": "2011-11-20",
        "SITE": "JSC",
        "DECAY_DATE": null,
        "FILE": "4530606",
        "GP_ID": "271219937",
        "TLE_LINE0": "0 CZ-2D R/B",
        "TLE_LINE1": "1 37932U 11068C   24295.91868446  .00000415  00000-0  20426-3 0  9995",
        "TLE_LINE2": "2 37932  98.8093 237.5493 0036328 196.3563 207.8479 14.22657293670697"
    }
]